NORAD_CAT_ID,OBJECT_NAME,OBJECT_TYPE,EPOCH,MEAN_MOTION,ECCENTRICITY,INCLINATION,RA_OF_ASC_NODE,ARG_OF_PERICENTER,MEAN_ANOMALY,BSTAR,MEAN_MOTION_DOT,MEAN_MOTION_DDOT,TLE_LINE0,TLE_LINE1,TLE_LINE2,SEMIMAJOR_AXIS,PERIOD,APOGEE,PERIGEE,DECAYED
51958.0,STARLINK-3692,PAYLOAD,2023-04-29 02:36:19,15.08053932,0.0001347,53.132,43.0151,117.7167,242.396,-0.00014056,-2.475e-05,0.0,0 STARLINK-3692,1 51958U 22025C   23119.10856067 -.00002475  00000-0 -14056-3 0  9997,2 51958  53.1320  43.0151 0001347 117.7167 242.3960 15.08053932 64432,6920.284,95.487,543.081,541.217,0.0
51958.0,STARLINK-3692,PAYLOAD,2023-04-30 04:03:18,15.08042763,0.0001303,53.1314,38.2503,105.9784,254.135,0.00023726,3.411e-05,0.0,0 STARLINK-3692,1 51958U 22025C   23120.16896590  .00003411  00000-0  23726-3 0  9993,2 51958  53.1314  38.2503 0001303 105.9784 254.1350 15.08042763 64599,6920.318,95.488,543.085,541.282,0.0
51958.0,STARLINK-3692,PAYLOAD,2023-05-01 03:54:51,15.08045484,0.0001395,53.1307,33.7836,93.9886,266.1264,0.00017464,2.435e-05,0.0,0 STARLINK-3692,1 51958U 22025C   23121.16309143  .00002435  00000-0  17464-3 0  9994,2 51958  53.1307  33.7836 0001395  93.9886 266.1264 15.08045484 64747,6920.31,95.488,543.14,541.21,0.0
51958.0,STARLINK-3692,PAYLOAD,2023-05-01 21:24:38,15.08044755,0.0001599,53.1303,30.5045,132.1814,227.9312,0.00015371,2.109e-05,0.0,0 STARLINK-3692,1 51958U 22025C   23121.89211275  .00002109  00000-0  15371-3 0  9995,2 51958  53.1303  30.5045 0001599 132.1814 227.9312 15.08044755 63763,6920.312,95.488,543.284,541.071,0.0
51958.0,STARLINK-3692,PAYLOAD,2023-05-02 03:46:23,15.08044175,0.0001169,53.1283,29.3147,113.829,246.2823,0.00017533,2.446e-05,0.0,0 STARLINK-3692,1 51958U 22025C   23122.15721350  .00002446  00000-0  17533-3 0  9991,2 51958  53.1283  29.3147 0001169 113.8290 246.2823 15.08044175 64898,6920.314,95.488,542.988,541.37,0.0
51958.0,STARLINK-3692,PAYLOAD,2023-05-02 21:16:11,15.08039317,0.0001165,53.1271,26.0394,100.3823,259.7299,0.00011837,1.558e-05,0.0,0 STARLINK-3692,1 51958U 22025C   23122.88623934  .00001558  00000-0  11837-3 0  9994,2 51958  53.1271  26.0394 0001165 100.3823 259.7299 15.08039317 65004,6920.329,95.488,543.0,541.388,0.0
51958.0,STARLINK-3692,PAYLOAD,2023-05-03 03:37:56,15.08029631,0.0001152,53.1269,24.8498,92.0817,268.0305,-0.00010725,-1.955e-05,0.0,0 STARLINK-3692,1 51958U 22025C   23123.15134450 -.00001955  00000-0 -10725-3 0  9993,2 51958  53.1269  24.8498 0001152  92.0817 268.0305 15.08029631 65041,6920.358,95.489,543.021,541.426,0.0
51958.0,STARLINK-3692,PAYLOAD,2023-05-03 09:59:41,15.08032835,0.0001114,53.1275,23.6591,100.1915,259.9201,-1.9834e-05,-5.94e-06,0.0,0 STARLINK-3692,1 51958U 22025C   23123.41644699 -.00000594  00000-0 -19834-4 0  9992,2 51958  53.1275  23.6591 0001114 100.1915 259.9201 15.08032835 63993,6920.349,95.489,542.985,541.443,0.0
51958.0,STARLINK-3692,PAYLOAD,2023-05-03 21:07:43,15.08034338,0.0001154,53.1271,21.5746,94.6925,265.4197,5.9121e-05,6.35e-06,0.0,0 STARLINK-3692,1 51958U 22025C   23123.88036933  .00000635  00000-0  59121-4 0  9996,2 51958  53.1271  21.5746 0001154  94.6925 265.4197 15.08034338 64065,6920.344,95.489,543.008,541.41,0.0
51958.0,STARLINK-3692,PAYLOAD,2023-05-04 00:18:36,15.08035307,0.0001142,53.1259,20.9796,98.9344,261.1776,8.2057e-05,9.92e-06,0.0,0 STARLINK-3692,1 51958U 22025C   23124.01291746  .00000992  00000-0  82057-4 0  9997,2 51958  53.1259  20.9796 0001142  98.9344 261.1776 15.08035307 65174,6920.341,95.488,542.996,541.416,0.0
51958.0,STARLINK-3692,PAYLOAD,2023-05-04 11:26:38,15.08040577,0.0001101,53.1246,18.8961,107.3106,252.8005,2.0634e-05,3.6e-07,0.0,0 STARLINK-3692,1 51958U 22025C   23124.47683999  .00000036  00000-0  20634-4 0  9994,2 51958  53.1246  18.8961 0001101 107.3106 252.8005 15.08040577 64150,6920.325,95.488,542.952,541.428,0.0
51958.0,STARLINK-3692,PAYLOAD,2023-05-04 20:59:16,15.08030672,0.0001126,53.1231,17.1084,77.6844,282.4273,0.00011987,1.581e-05,0.0,0 STARLINK-3692,1 51958U 22025C   23124.87449539  .00001581  00000-0  11987-3 0  9994,2 51958  53.1231  17.1084 0001126  77.6844 282.4273 15.08030672 64215,6920.355,95.489,543.0,541.441,0.0
51958.0,STARLINK-3692,PAYLOAD,2023-05-05 01:45:34,15.08037449,0.0001387,53.1232,16.2152,93.9801,266.1348,3.48e-05,2.56e-06,0.0,0 STARLINK-3692,1 51958U 22025C   23125.07331820  .00000256  00000-0  34800-4 0  9998,2 51958  53.1232  16.2152 0001387  93.9801 266.1348 15.08037449 65330,6920.335,95.488,543.159,541.24,0.0
51958.0,STARLINK-3692,PAYLOAD,2023-05-05 20:50:48,15.08037014,0.0001229,53.1228,12.6415,94.3279,265.7852,8.4627e-05,1.032e-05,0.0,0 STARLINK-3692,1 51958U 22025C   23125.86861952  .00001032  00000-0  84627-4 0  9994,2 51958  53.1228  12.6415 0001229  94.3279 265.7852 15.08037014 64361,6920.336,95.488,543.051,541.35,0.0
51958.0,STARLINK-3692,PAYLOAD,2023-05-06 15:56:02,15.08040588,0.0001227,53.1223,9.0677,90.6621,269.451,0.00010358,1.328e-05,0.0,0 STARLINK-3692,1 51958U 22025C   23126.66391671  .00001328  00000-0  10358-3 0  9996,2 51958  53.1223   9.0677 0001227  90.6621 269.4510 15.08040588 64489,6920.325,95.488,543.039,541.341,0.0
51958.0,STARLINK-3692,PAYLOAD,2023-05-07 01:28:37,15.08057611,0.0001309,53.1226,7.279,100.4683,259.6455,0.00025308,3.659e-05,0.0,0 STARLINK-3692,1 51958U 22025C   23127.06154943  .00003659  00000-0  25308-3 0  9990,2 51958  53.1226   7.2790 0001309 100.4683 259.6455 15.08057611 65639,6920.273,95.487,543.044,541.232,0.0
51958.0,STARLINK-3692,PAYLOAD,2023-05-07 20:33:54,15.08019024,9.33e-05,53.1206,3.7085,106.1894,253.9199,-7.9367e-05,-1.521e-05,0.0,0 STARLINK-3692,1 51958U 22025C   23127.85688517 -.00001521  00000-0 -79367-4 0  9999,2 51958  53.1206   3.7085 0000933 106.1894 253.9199 15.08019024 65755,6920.391,95.49,542.902,541.61,0.0
51958.0,STARLINK-3692,PAYLOAD,2023-05-07 22:09:21,15.0801961,9.21e-05,53.1205,3.4107,109.2357,250.8733,-7.2212e-05,-1.409e-05,0.0,0 STARLINK-3692,1 51958U 22025C   23127.92316021 -.00001409  00000-0 -72212-4 0  9992,2 51958  53.1205   3.4107 0000921 109.2357 250.8733 15.08019610 64672,6920.389,95.489,542.891,541.617,0.0
51958.0,STARLINK-3692,PAYLOAD,2023-05-08 09:17:23,15.08027008,0.0001018,53.1206,1.3259,99.6563,260.4543,-4.3554e-06,-3.53e-06,0.0,0 STARLINK-3692,1 51958U 22025C   23128.38708309 -.00000353  00000-0 -43554-5 0  9992,2 51958  53.1206   1.3259 0001018  99.6563 260.4543 15.08027008 65832,6920.366,95.489,542.936,541.527,0.0
51958.0,STARLINK-3692,PAYLOAD,2023-05-08 20:25:26,15.08032714,0.0001125,53.1178,359.2433,52.6967,307.4126,0.00013422,1.805e-05,0.0,0 STARLINK-3692,1 51958U 22025C   23128.85100467  .00001805  00000-0  13422-3 0  9995,2 51958  53.1178 359.2433 0001125  52.6967 307.4126 15.08032714 65902,6920.349,95.489,542.993,541.436,0.0
51958.0,STARLINK-3692,PAYLOAD,2023-05-08 22:00:52,15.08041714,8.93e-05,53.1177,358.9423,93.4085,266.7008,0.00024422,3.52e-05,0.0,0 STARLINK-3692,1 51958U 22025C   23128.91727428  .00003520  00000-0  24422-3 0  9992,2 51958  53.1177 358.9423 0000893  93.4085 266.7008 15.08041714 64827,6920.322,95.488,542.804,541.569,0.0
51958.0,STARLINK-3692,PAYLOAD,2023-05-09 21:52:24,15.08052141,8.91e-05,53.1167,354.4759,112.2597,247.8488,9.8646e-06,-1.32e-06,0.0,0 STARLINK-3692,1 51958U 22025C   23129.91139478 -.00000132  00000-0  98646-5 0  9993,2 51958  53.1167 354.4759 0000891 112.2597 247.8488 15.08052141 64979,6920.29,95.487,542.771,541.538,0.0
51958.0,STARLINK-3692,PAYLOAD,2023-05-10 18:33:04,15.08047448,7.92e-05,53.1165,350.606,103.3189,256.789,0.00013253,1.779e-05,0.0,0 STARLINK-3692,1 51958U 22025C   23130.77296827  .00001779  00000-0  13253-3 0  9997,2 51958  53.1165 350.6060 0000792 103.3189 256.7890 15.08047448 66194,6920.304,95.488,542.717,541.621,0.0
51958.0,STARLINK-3692,PAYLOAD,2023-05-10 21:43:56,15.08044789,7.8e-05,53.1164,350.0067,103.4485,256.6592,6.2329e-05,6.85e-06,0.0,0 STARLINK-3692,1 51958U 22025C   23130.90551838  .00000685  00000-0  62329-4 0  9992,2 51958  53.1164 350.0067 0000780 103.4485 256.6592 15.08044789 65126,6920.312,95.488,542.717,541.637,0.0
51958.0,STARLINK-3692,PAYLOAD,2023-05-10 23:19:22,15.08059578,7.38e-05,53.1154,349.7077,114.0039,246.1028,-0.00036287,-5.935e-05,0.0,0 STARLINK-3692,1 51958U 22025C   23130.97178450 -.00005935  00000-0 -36287-3 0  9992,2 51958  53.1154 349.7077 0000738 114.0039 246.1028 15.08059578 65138,6920.267,95.487,542.643,541.621,0.0
51958.0,STARLINK-3692,PAYLOAD,2023-05-11 16:49:10,15.08031638,9.54e-05,53.1136,346.4309,120.1149,239.9936,-1.0495e-05,-4.49e-06,0.0,0 STARLINK-3692,1 51958U 22025C   23131.70082117 -.00000449  00000-0 -10495-4 0  9997,2 51958  53.1136 346.4309 0000954 120.1149 239.9936 15.08031638 66338,6920.352,95.489,542.878,541.557,0.0
51958.0,STARLINK-3692,PAYLOAD,2023-05-11 21:35:29,15.08036698,7.04e-05,53.1143,345.5373,95.4714,264.6357,-6.4032e-05,-1.282e-05,0.0,0 STARLINK-3692,1 51958U 22025C   23131.89964977 -.00001282  00000-0 -64032-4 0  9992,2 51958  53.1143 345.5373 0000704  95.4714 264.6357 15.08036698 65277,6920.337,95.488,542.689,541.715,0.0
51958.0,STARLINK-3692,PAYLOAD,2023-05-12 18:16:09,15.08038227,7.44e-05,53.1127,341.6651,105.7347,254.3725,8.329e-05,1.012e-05,0.0,0 STARLINK-3692,1 51958U 22025C   23132.76121684  .00001012  00000-0  83290-4 0  9995,2 51958  53.1127 341.6651 0000744 105.7347 254.3725 15.08038227 65406,6920.332,95.488,542.712,541.682,0.0
51958.0,STARLINK-3692,PAYLOAD,2023-05-12 21:27:01,15.08040503,7.59e-05,53.1125,341.0694,106.0776,254.0298,0.00010251,1.311e-05,0.0,0 STARLINK-3692,1 51958U 22025C   23132.89376472  .00001311  00000-0  10251-3 0  9994,2 51958  53.1125 341.0694 0000759 106.0776 254.0298 15.08040503 66516,6920.325,95.488,542.715,541.665,0.0
51958.0,STARLINK-3692,PAYLOAD,2023-05-13 21:18:34,15.08031671,8.12e-05,53.1123,336.6005,90.7469,269.3615,6.4575e-05,7.2e-06,0.0,0 STARLINK-3692,1 51958U 22025C   23133.88789668  .00000720  00000-0  64575-4 0  9991,2 51958  53.1123 336.6005 0000812  90.7469 269.3615 15.08031671 65571,6920.352,95.489,542.779,541.655,0.0
